[{"OBJECT_NAME":"PRAETORIAN SDA_605","OBJECT_ID":"2025-203D","EPOCH":"2026-03-09T14:13:24.756960","MEAN_MOTION":13.83528896,"ECCENTRICITY":0.000955,"INCLINATION":81.2983,"RA_OF_ASC_NODE":102.8978,"ARG_OF_PERICENTER":98.6469,"MEAN_ANOMALY":261.5769,"EPHEMERIS_TYPE":0,"CLASSIFICATION_TYPE":"U","NORAD_CAT_ID":65568,"ELEMENT_SET_NO":999,"REV_AT_EPOCH":2492,"BSTAR":5.2426e-5,"MEAN_MOTION_DOT":7.0e-7,"MEAN_MOTION_DDOT":0},{"OBJECT_NAME":"COSMOS 1275 DEB","OBJECT_ID":"1981-053S","EPOCH":"2026-03-09T22:21:28.844640","MEAN_MOTION":13.78166551,"ECCENTRICITY":0.00211695,"INCLINATION":82.9547,"RA_OF_ASC_NODE":295.1895,"ARG_OF_PERICENTER":298.5386,"MEAN_ANOMALY":141.3354,"EPHEMERIS_TYPE":0,"CLASSIFICATION_TYPE":"U","NORAD_CAT_ID":12662,"ELEMENT_SET_NO":999,"REV_AT_EPOCH":24106,"BSTAR":0.0001617543,"MEAN_MOTION_DOT":1.78e-6,"MEAN_MOTION_DDOT":0}]
